OBJECT_NAME,OBJECT_ID,EPOCH,MEAN_MOTION,ECCENTRICITY,INCLINATION,RA_OF_ASC_NODE,ARG_OF_PERICENTER,MEAN_ANOMALY,EPHEMERIS_TYPE,CLASSIFICATION_TYPE,NORAD_CAT_ID,ELEMENT_SET_NO,REV_AT_EPOCH,BSTAR,MEAN_MOTION_DOT,MEAN_MOTION_DDOT
EYESAT A (AO-27),1993-061C,2026-07-13T03:37:54.441984,14.30948752,.00088758,98.6869,261.5539,31.5428,328.6285,0,U,22825,999,71071,.32597986E-4,.41E-6,0
ITAMSAT (IO-26),1993-061D,2026-07-13T02:57:06.045696,14.31376322,.00090858,98.6817,261.4457,15.3060,344.8396,0,U,22826,999,71102,.29298912E-4,.33E-6,0
RADIO ROSTO (RS15),1994-085A,2026-07-13T13:05:16.471392,11.27583538,.01568479,64.8158,260.5892,359.0113,1.0481,0,U,23439,999,29887,.67664081E-3,-.19E-6,0
JAS-2 (FO-29),1996-046B,2026-07-13T13:22:31.983168,13.53275527,.03504334,98.5220,39.8146,28.1834,333.7792,0,U,24278,999,47673,.55296704E-4,.2E-6,0
FORTE,1997-047A,2026-07-13T15:26:31.036992,14.27955045,.00243736,69.9547,314.2622,245.3441,114.5143,0,U,24920,999,50246,.43171807E-4,.49E-6,0
TECHSAT 1B (GO-32),1998-043D,2026-07-13T13:06:10.485216,14.24433163,.00021461,99.0084,187.9711,116.9543,243.1854,0,U,25397,999,45508,.27073752E-4,.16E-6,0
ISS (ZARYA),1998-067A,2026-07-13T07:33:22.422240,15.48997295,.0006687,51.6305,170.7871,290.3592,69.6678,0,U,25544,999,57580,.81266333E-4,.4029E-4,0
IMAGE,2000-017A,2026-07-10T09:33:22.635360,1.68666826,.74160542,94.2468,315.6762,285.1805,9.7435,0,U,26113,999,16189,0,-.42E-6,0
CLUSTER II-FM7 (SAMBA),2000-041A,2026-07-11T16:19:30.897408,0.44896530,.90823116,149.8437,55.3938,272.8334,359.6328,0,U,26410,999,2042,0,.12833E-3,0
CLUSTER II-FM8 (TANGO),2000-045B,2026-07-12T04:48:07.342272,0.44413276,.9087598,150.0475,56.7154,274.0139,2.1073,0,U,26464,999,2042,0,.13279E-3,0
ODIN,2001-007A,2026-07-13T14:32:39.563808,15.88613949,.00048398,97.3734,237.4616,144.0406,216.1193,0,U,26702,999,39357,.97965113E-3,.271366E-2,.2850657E-4
OMNI-M1,2001-026A,2026-07-13T05:13:11.261280,3.92401929,.00135225,44.8246,239.2639,57.5126,302.6838,0,U,26857,999,20659,0,.18E-6,0
PCSAT (NO-44),2001-043C,2026-07-13T10:06:23.042592,14.31964599,.00059423,67.0493,176.4180,266.4471,93.5951,0,U,26931,999,29420,.3923713E-4,.22E-6,0
PROBA-1,2001-049B,2026-07-13T14:52:37.162848,15.07612925,.0055882,97.9604,204.0764,34.9336,325.5537,0,U,26958,999,34760,.11058157E-3,.1672E-4,0
SAUDISAT 1C (SO-50),2002-058C,2026-07-13T15:44:14.870688,14.83096658,.0074573,64.5517,47.0888,257.5598,101.7156,0,U,27607,999,26838,.61966598E-4,.372E-5,0
CORIOLIS,2003-001A,2026-07-13T14:54:59.244192,14.19951526,.0014839,98.7134,201.1031,133.3650,226.8765,0,U,27640,999,21797,.45514052E-4,.53E-6,0
CUTE-1 (CO-55),2003-031E,2026-07-13T10:48:24.576480,14.24350896,.00108034,98.6742,202.6793,107.1223,253.1140,0,U,27844,999,19541,.8684817E-4,.157E-5,0
CUBESAT XI-IV (CO-57),2003-031J,2026-07-13T12:32:00.136320,14.23634004,.00104861,98.6773,202.4416,123.7879,236.4299,0,U,27848,999,19512,.75510188E-4,.129E-5,0
MOZHAETS 4 (RS22),2003-042A,2026-07-13T15:05:08.322720,14.73513085,.00111139,98.3472,19.7361,178.1971,247.0000,0,U,27939,999,21944,.10965015E-3,.659E-5,0
